NORAD_CAT_ID,OBJECT_NAME,OBJECT_TYPE,EPOCH,MEAN_MOTION,ECCENTRICITY,INCLINATION,RA_OF_ASC_NODE,ARG_OF_PERICENTER,MEAN_ANOMALY,BSTAR,MEAN_MOTION_DOT,MEAN_MOTION_DDOT,TLE_LINE0,TLE_LINE1,TLE_LINE2,SEMIMAJOR_AXIS,PERIOD,APOGEE,PERIGEE,DECAYED
55396.0,STARLINK-5283,PAYLOAD,2023-07-12 14:54:49,15.5025289,0.0003107,69.9983,355.4604,256.2065,103.8775,-0.0020062,-0.00112411,0.0,0 STARLINK-5283,1 55396U 23014F   23193.62140674 -.00112411  00000-0 -20062-2 0  9990,2 55396  69.9983 355.4604 0003107 256.2065 103.8775 15.50252890 25597,6794.124,92.888,418.1,413.878,0.0
55396.0,STARLINK-5283,PAYLOAD,2023-07-13 18:00:00,15.47079102,0.0003322,70.0004,352.3857,274.4331,256.6833,-0.01838,-0.0085207,0.0,0 STARLINK-5283,1 55396U 23014F   23194.75001157 -.00852070  00000-0 -18380-1 0  9998,2 55396  70.0004 352.3857 0003322 274.4331 256.6833 15.47079102 25778,6803.413,93.079,427.538,423.018,0.0
55396.0,STARLINK-5283,PAYLOAD,2023-07-14 04:00:01,15.4627314,0.0003384,70.0002,351.2539,270.6078,59.9337,-0.019428,-0.00885426,0.0,0 STARLINK-5283,1 55396U 23014F   23195.16668981 -.00885426  00000-0 -19428-1 0  9993,2 55396  70.0002 351.2539 0003384 270.6078  59.9337 15.46273140 25832,6805.777,93.127,429.945,425.339,0.0
55396.0,STARLINK-5283,PAYLOAD,2023-07-14 22:00:00,15.44838763,0.0003167,70.0003,349.2207,275.8025,266.4301,-0.02145,-0.00926919,0.0,0 STARLINK-5283,1 55396U 23014F   23195.91667824 -.00926919  00000-0 -21450-1 0  9992,2 55396  70.0003 349.2207 0003167 275.8025 266.4301 15.44838763 25955,6809.989,93.214,434.011,429.697,0.0
55396.0,STARLINK-5283,PAYLOAD,2023-07-16 06:00:00,15.42186255,0.0003341,70.0005,345.6177,270.9117,118.0361,-0.021341,-0.00849133,0.0,0 STARLINK-5283,1 55396U 23014F   23197.25001157 -.00849133  00000-0 -21341-1 0  9993,2 55396  70.0005 345.6177 0003341 270.9117 118.0361 15.42186255 26156,6817.795,93.374,441.938,437.382,0.0
55396.0,STARLINK-5283,PAYLOAD,2023-07-16 14:00:01,15.41569642,0.0003309,70.0007,344.7193,272.7053,165.9599,-0.024086,-0.00931536,0.0,0 STARLINK-5283,1 55396U 23014F   23197.58334491 -.00931536  00000-0 -24086-1 0  9997,2 55396  70.0007 344.7193 0003309 272.7053 165.9599 15.41569642 26203,6819.613,93.411,443.735,439.222,0.0
55396.0,STARLINK-5283,PAYLOAD,2023-07-17 22:00:00,15.38975735,0.0003269,70.0006,341.1336,270.2023,359.5086,-0.026575,-0.00942158,0.0,0 STARLINK-5283,1 55396U 23014F   23198.91667824 -.00942158  00000-0 -26575-1 0  9991,2 55396  70.0006 341.1336 0003269 270.2023 359.5086 15.38975735 26412,6827.274,93.569,451.371,446.907,0.0
55396.0,STARLINK-5283,PAYLOAD,2023-07-18 22:00:00,15.37023936,0.0003387,70.0009,338.4538,276.2702,128.5178,-0.028564,-0.00949515,0.0,0 STARLINK-5283,1 55396U 23014F   23199.91667824 -.00949515  00000-0 -28564-1 0  9996,2 55396  70.0009 338.4538 0003387 276.2702 128.5178 15.37023936 26567,6833.052,93.688,457.232,452.603,0.0
55396.0,STARLINK-5283,PAYLOAD,2023-07-19 14:00:01,15.35692431,0.0003252,70.0012,336.6717,273.5351,217.409,-0.028756,-0.00918346,0.0,0 STARLINK-5283,1 55396U 23014F   23200.58334491 -.00918346  00000-0 -28756-1 0  9994,2 55396  70.0012 336.6717 0003252 273.5351 217.4090 15.35692431 26663,6837.002,93.769,461.09,456.643,0.0
55396.0,STARLINK-5283,PAYLOAD,2023-07-21 14:00:01,15.31773938,0.0003436,70.0011,331.3473,272.0461,98.5482,-0.032213,-0.00909216,0.0,0 STARLINK-5283,1 55396U 23014F   23202.58334491 -.00909216  00000-0 -32213-1 0  9995,2 55396  70.0011 331.3473 0003436 272.0461  98.5482 15.31773938 26978,6848.657,94.009,472.875,468.168,0.0
55396.0,STARLINK-5283,PAYLOAD,2023-07-24 14:00:01,15.25902111,0.000354,70.0006,323.4186,271.5576,45.7051,-0.038478,-0.00917827,0.0,0 STARLINK-5283,1 55396U 23014F   23205.58334491 -.00917827  00000-0 -38478-1 0  9994,2 55396  70.0006 323.4186 0003540 271.5576  45.7051 15.25902111  2253,6866.215,94.37,490.511,485.649,0.0
55396.0,STARLINK-5283,PAYLOAD,2023-07-25 14:00:01,15.23943342,0.000351,70.0005,320.7912,272.8968,132.5715,-0.04062,-0.0091383,0.0,0 STARLINK-5283,1 55396U 23014F   23206.58335648 -.00913830  00000-0 -40620-1 0  9992,2 55396  70.0005 320.7912 0003510 272.8968 132.5715 15.23943342  2403,6872.097,94.492,496.374,491.55,0.0
55396.0,STARLINK-5283,PAYLOAD,2023-07-26 14:00:01,15.21979858,0.0003382,70.0002,318.1716,272.9365,213.5714,-0.042478,-0.00902324,0.0,0 STARLINK-5283,1 55396U 23014F   23207.58334491 -.00902324  00000-0 -42478-1 0  9997,2 55396  70.0002 318.1716 0003382 272.9365 213.5714 15.21979858  2567,6878.006,94.614,502.197,497.545,0.0
55396.0,STARLINK-5283,PAYLOAD,2023-07-27 00:00:00,15.21180927,0.000334,69.9999,317.0824,270.06,338.1547,-0.044841,-0.00928339,0.0,0 STARLINK-5283,1 55396U 23014F   23208.00001157 -.00928339  00000-0 -44841-1 0  9995,2 55396  69.9999 317.0824 0003340 270.0600 338.1547 15.21180927  2628,6880.414,94.663,504.577,499.981,0.0
55396.0,STARLINK-5283,PAYLOAD,2023-07-27 06:00:00,15.20701103,0.000326,70.0,316.4298,267.1902,269.4572,-0.045234,-0.00923715,0.0,0 STARLINK-5283,1 55396U 23014F   23208.25001157 -.00923715  00000-0 -45234-1 0  9992,2 55396  70.0000 316.4298 0003260 267.1902 269.4572 15.20701103 27844,6881.862,94.693,505.97,501.483,0.0
55396.0,STARLINK-5283,PAYLOAD,2023-07-27 14:00:01,15.20015842,0.000332,70.0001,315.5601,271.8958,288.6748,-0.044283,-0.00888932,0.0,0 STARLINK-5283,1 55396U 23014F   23208.58334491 -.00888932  00000-0 -44283-1 0  9992,2 55396  70.0001 315.5601 0003320 271.8958 288.6748 15.20015842  2718,6883.93,94.736,508.08,503.509,0.0
55396.0,STARLINK-5283,PAYLOAD,2023-07-27 22:00:00,15.19413911,0.0003247,69.9999,314.6914,271.4766,312.1978,-0.049575,-0.00971138,0.0,0 STARLINK-5283,1 55396U 23014F   23208.91667824 -.00971138  00000-0 -49575-1 0  9998,2 55396  69.9999 314.6914 0003247 271.4766 312.1978 15.19413911  2769,6885.748,94.773,509.849,505.377,0.0
55396.0,STARLINK-5283,PAYLOAD,2023-07-28 06:00:00,15.18746383,0.0003304,70.0,313.8236,265.7739,340.24,-0.048072,-0.0092704,0.0,0 STARLINK-5283,1 55396U 23014F   23209.25001157 -.00927040  00000-0 -48072-1 0  9991,2 55396  70.0000 313.8236 0003304 265.7739 340.2400 15.18746383 27998,6887.765,94.815,511.906,507.355,0.0
55396.0,STARLINK-5283,PAYLOAD,2023-07-28 14:00:01,15.18055719,0.0003366,70.0002,312.9566,271.4297,356.1613,-0.046432,-0.00881095,0.0,0 STARLINK-5283,1 55396U 23014F   23209.58334491 -.00881095  00000-0 -46432-1 0  9994,2 55396  70.0002 312.9566 0003366 271.4297 356.1613 15.18055719  2864,6889.854,94.858,514.038,509.4,0.0
55396.0,STARLINK-5283,PAYLOAD,2023-07-29 06:00:00,15.1679087,0.0003381,70.0002,311.2254,266.7345,41.6056,-0.050982,-0.00929111,0.0,0 STARLINK-5283,1 55396U 23014F   23210.25001157 -.00929111  00000-0 -50982-1 0  9997,2 55396  70.0002 311.2254 0003381 266.7345  41.6056 15.16790870 28146,6893.684,94.937,517.88,513.218,0.0
55396.0,STARLINK-5283,PAYLOAD,2023-07-30 06:00:02,15.14835916,0.00034,70.0004,308.6351,268.658,95.0308,-0.054124,-0.00932609,0.0,0 STARLINK-5283,1 55396U 23014F   23211.25002315 -.00932609  00000-0 -54124-1 0  9993,2 55396  70.0004 308.6351 0003400 268.6580  95.0308 15.14835916 28298,6899.614,95.06,523.825,519.133,0.0
55396.0,STARLINK-5283,PAYLOAD,2023-07-31 14:00:01,15.12187442,0.000338,70.0005,305.1933,276.0666,150.3394,-0.054808,-0.00880409,0.0,0 STARLINK-5283,1 55396U 23014F   23212.58334491 -.00880409  00000-0 -54808-1 0  9992,2 55396  70.0005 305.1933 0003380 276.0666 150.3394 15.12187442 28496,6907.667,95.226,531.867,527.198,0.0
55396.0,STARLINK-5283,PAYLOAD,2023-08-01 06:00:00,15.109261,0.0003246,70.0004,303.4777,270.6281,182.4474,-0.060914,-0.00939908,0.0,0 STARLINK-5283,1 55396U 23014F   23213.25001157 -.00939908  00000-0 -60914-1 0  9991,2 55396  70.0004 303.4777 0003246 270.6281 182.4474 15.10926100 28592,6911.511,95.306,535.62,531.133,0.0
55396.0,STARLINK-5283,PAYLOAD,2023-08-02 14:00:01,15.08273503,0.0003268,69.9999,300.0567,276.2442,220.8374,-0.06099,-0.0087926,0.0,0 STARLINK-5283,1 55396U 23014F   23214.58334491 -.00879260  00000-0 -60990-1 0  9996,2 55396  69.9999 300.0567 0003268 276.2442 220.8374 15.08273503 28806,6919.612,95.473,543.739,539.216,0.0
55396.0,STARLINK-5283,PAYLOAD,2023-08-03 06:00:00,15.0701638,0.0003186,69.9997,298.3513,268.8898,245.4729,-0.068377,-0.00946976,0.0,0 STARLINK-5283,1 55396U 23014F   23215.25001157 -.00946976  00000-0 -68377-1 0  9997,2 55396  69.9997 298.3513 0003186 268.8898 245.4729 15.07016380 28900,6923.46,95.553,547.531,543.119,0.0
55396.0,STARLINK-5283,PAYLOAD,2023-08-04 06:00:00,15.05060956,0.0003189,69.9992,295.7995,267.7774,266.6685,-0.072341,-0.00949979,0.0,0 STARLINK-5283,1 55396U 23014F   23216.25001157 -.00949979  00000-0 -72341-1 0  9990,2 55396  69.9992 295.7995 0003189 267.7774 266.6685 15.05060956 29053,6929.456,95.677,553.53,549.111,0.0
55396.0,STARLINK-5283,PAYLOAD,2023-08-05 06:00:00,15.03105454,0.0003205,69.9988,293.2553,267.1615,280.3272,-0.076534,-0.0096454,0.0,0 STARLINK-5283,1 55396U 23014F   23217.25001157 -.00964540  00000-0 -76534-1 0  9990,2 55396  69.9988 293.2553 0003205 267.1615 280.3272 15.03105454 29201,6935.464,95.802,559.552,555.106,0.0
55396.0,STARLINK-5283,PAYLOAD,2023-08-06 04:00:00,15.01302085,0.0003264,69.9986,290.9301,269.073,194.1869,-0.078444,-0.00943889,0.0,0 STARLINK-5283,1 55396U 23014F   23218.16667824 -.00943889  00000-0 -78444-1 0  9995,2 55396  69.9986 290.9301 0003264 269.0730 194.1869 15.01302085 29344,6941.017,95.917,565.148,560.617,0.0
55396.0,STARLINK-5283,PAYLOAD,2023-08-07 06:00:00,14.99331732,0.0003369,69.9988,288.1905,268.2719,284.1977,-0.0030929,-0.00037767,0.0,0 STARLINK-5283,1 55396U 23014F   23219.25001157 -.00037767  00000-0 -30929-2 0  9993,2 55396  69.9988 288.1905 0003369 268.2719 284.1977 14.99331732 29504,6947.097,96.043,571.302,566.621,0.0
55396.0,STARLINK-5283,PAYLOAD,2023-08-08 06:00:00,14.9932082,0.0003278,69.9988,285.6651,269.7261,278.6866,-0.0016762,-0.00020555,0.0,0 STARLINK-5283,1 55396U 23014F   23220.25001157 -.00020555  00000-0 -16762-2 0  9991,2 55396  69.9988 285.6651 0003278 269.7261 278.6866 14.99320820 29658,6947.131,96.043,571.273,566.718,0.0
